[{"OBJECT_NAME":"GRACE-FO 2","OBJECT_ID":"2018-047B","EPOCH":"2026-03-09T22:18:30.629952","MEAN_MOTION":15.37442345,"ECCENTRICITY":0.00130795,"INCLINATION":88.9902,"RA_OF_ASC_NODE":211.5805,"ARG_OF_PERICENTER":129.3432,"MEAN_ANOMALY":230.8984,"EPHEMERIS_TYPE":0,"CLASSIFICATION_TYPE":"U","NORAD_CAT_ID":43477,"ELEMENT_SET_NO":999,"REV_AT_EPOCH":43454,"BSTAR":0.00017253527,"MEAN_MOTION_DOT":6.378e-5,"MEAN_MOTION_DDOT":0},{"OBJECT_NAME":"OBJECT N","OBJECT_ID":"2025-155N","EPOCH":"2026-03-09T22:27:42.648192","MEAN_MOTION":15.35502024,"ECCENTRICITY":0.00088608,"INCLINATION":97.4405,"RA_OF_ASC_NODE":38.3729,"ARG_OF_PERICENTER":136.1354,"MEAN_ANOMALY":224.0595,"EPHEMERIS_TYPE":0,"CLASSIFICATION_TYPE":"U","NORAD_CAT_ID":64888,"ELEMENT_SET_NO":999,"REV_AT_EPOCH":6567,"BSTAR":0.00095623277,"MEAN_MOTION_DOT":0.00033051,"MEAN_MOTION_DDOT":0}]
